ORBCOMM FM33            
1 25983U 99065D   25329.99835580  .00001497  00000+0  51092-3 0  9994
2 25983  45.0295 309.4225 0006890 169.9055 190.1934 14.40467073359399
ORBCOMM FM36            
1 25984U 99065E   25329.47749900  .00001610  00000+0  56677-3 0  9999
2 25984  45.0401  46.2781 0001207 359.9048   0.1800 14.38638225357646
ORBCOMM FM35            
1 25985U 99065F   25329.71434281  .00001357  00000+0  49573-3 0  9995
2 25985  45.0405  51.4978 0003765 155.4516 204.6513 14.37552086358021
ORBCOMM FM34            
1 25986U 99065G   25329.54141661  .00001289  00000+0  47349-3 0  9997
2 25986  45.0399  52.7790 0002307  95.6210 264.4902 14.37514081358116
ORBCOMM FM38            
1 33060U 08031A   25330.19674628  .00002707  00000+0  36299-3 0  9997
2 33060  48.4393 262.7545 0004782  16.1624 343.9444 14.82158206938779
ORBCOMM FM41            
1 33061U 08031B   25330.11431928  .00002576  00000+0  35039-3 0  9999
2 33061  48.4432 271.4987 0004122 358.6344  14.6550 14.81713866938242
ORBCOMM FM29            
1 33062U 08031C   25330.15329845  .00002679  00000+0  36207-3 0  9990
2 33062  48.4386 278.9078 0005833 359.3635  14.0101 14.81854276938163
ORBCOMM FM39            
1 33063U 08031D   25330.20949558  .00002385  00000+0  33728-3 0  9995
2 33063  48.4405 304.7386 0007004 330.2563  29.7953 14.80304767937796
