<?xml version="1.0" encoding="UTF-8"?>
<ndm xmlns:xsi="http://www.w3.org/2001/XMLSchema-instance" xsi:noNamespaceSchemaLocation="https://sanaregistry.org/r/ndmxml_unqualified/ndmxml-2.0.0-master-2.0.xsd">
<omm id="CCSDS_OMM_VERS" version="2.0">
<header><CREATION_DATE/><ORIGINATOR/></header><body><segment><metadata><OBJECT_NAME>ORBCOMM FM33</OBJECT_NAME><OBJECT_ID>1999-065D</OBJECT_ID><CENTER_NAME>EARTH</CENTER_NAME><REF_FRAME>TEME</REF_FRAME><TIME_SYSTEM>UTC</TIME_SYSTEM><MEAN_ELEMENT_THEORY>SGP4</MEAN_ELEMENT_THEORY></metadata><data><meanElements><EPOCH>2025-11-25T23:57:37.941120</EPOCH><MEAN_MOTION>14.40467073</MEAN_MOTION><ECCENTRICITY>.000689</ECCENTRICITY><INCLINATION>45.0295</INCLINATION><RA_OF_ASC_NODE>309.4225</RA_OF_ASC_NODE><ARG_OF_PERICENTER>169.9055</ARG_OF_PERICENTER><MEAN_ANOMALY>190.1934</MEAN_ANOMALY></meanElements><tleParameters><EPHEMERIS_TYPE>0</EPHEMERIS_TYPE><CLASSIFICATION_TYPE>U</CLASSIFICATION_TYPE><NORAD_CAT_ID>25983</NORAD_CAT_ID><ELEMENT_SET_NO>999</ELEMENT_SET_NO><REV_AT_EPOCH>35939</REV_AT_EPOCH><BSTAR>.51091999E-3</BSTAR><MEAN_MOTION_DOT>.1497E-4</MEAN_MOTION_DOT><MEAN_MOTION_DDOT>0</MEAN_MOTION_DDOT></tleParameters></data></segment></body></omm>
<omm id="CCSDS_OMM_VERS" version="2.0">
<header><CREATION_DATE/><ORIGINATOR/></header><body><segment><metadata><OBJECT_NAME>ORBCOMM FM36</OBJECT_NAME><OBJECT_ID>1999-065E</OBJECT_ID><CENTER_NAME>EARTH</CENTER_NAME><REF_FRAME>TEME</REF_FRAME><TIME_SYSTEM>UTC</TIME_SYSTEM><MEAN_ELEMENT_THEORY>SGP4</MEAN_ELEMENT_THEORY></metadata><data><meanElements><EPOCH>2025-11-25T11:27:35.913600</EPOCH><MEAN_MOTION>14.38638225</MEAN_MOTION><ECCENTRICITY>.00012076</ECCENTRICITY><INCLINATION>45.0401</INCLINATION><RA_OF_ASC_NODE>46.2781</RA_OF_ASC_NODE><ARG_OF_PERICENTER>359.9048</ARG_OF_PERICENTER><MEAN_ANOMALY>0.1800</MEAN_ANOMALY></meanElements><tleParameters><EPHEMERIS_TYPE>0</EPHEMERIS_TYPE><CLASSIFICATION_TYPE>U</CLASSIFICATION_TYPE><NORAD_CAT_ID>25984</NORAD_CAT_ID><ELEMENT_SET_NO>999</ELEMENT_SET_NO><REV_AT_EPOCH>35764</REV_AT_EPOCH><BSTAR>.56677115E-3</BSTAR><MEAN_MOTION_DOT>.161E-4</MEAN_MOTION_DOT><MEAN_MOTION_DDOT>0</MEAN_MOTION_DDOT></tleParameters></data></segment></body></omm>
<omm id="CCSDS_OMM_VERS" version="2.0">
<header><CREATION_DATE/><ORIGINATOR/></header><body><segment><metadata><OBJECT_NAME>ORBCOMM FM35</OBJECT_NAME><OBJECT_ID>1999-065F</OBJECT_ID><CENTER_NAME>EARTH</CENTER_NAME><REF_FRAME>TEME</REF_FRAME><TIME_SYSTEM>UTC</TIME_SYSTEM><MEAN_ELEMENT_THEORY>SGP4</MEAN_ELEMENT_THEORY></metadata><data><meanElements><EPOCH>2025-11-25T17:08:39.218784</EPOCH><MEAN_MOTION>14.37552086</MEAN_MOTION><ECCENTRICITY>.00037658</ECCENTRICITY><INCLINATION>45.0405</INCLINATION><RA_OF_ASC_NODE>51.4978</RA_OF_ASC_NODE><ARG_OF_PERICENTER>155.4516</ARG_OF_PERICENTER><MEAN_ANOMALY>204.6513</MEAN_ANOMALY></meanElements><tleParameters><EPHEMERIS_TYPE>0</EPHEMERIS_TYPE><CLASSIFICATION_TYPE>U</CLASSIFICATION_TYPE><NORAD_CAT_ID>25985</NORAD_CAT_ID><ELEMENT_SET_NO>999</ELEMENT_SET_NO><REV_AT_EPOCH>35802</REV_AT_EPOCH><BSTAR>.49572818E-3</BSTAR><MEAN_MOTION_DOT>.1357E-4</MEAN_MOTION_DOT><MEAN_MOTION_DDOT>0</MEAN_MOTION_DDOT></tleParameters></data></segment></body></omm>
<omm id="CCSDS_OMM_VERS" version="2.0">
<header><CREATION_DATE/><ORIGINATOR/></header><body><segment><metadata><OBJECT_NAME>ORBCOMM FM34</OBJECT_NAME><OBJECT_ID>1999-065G</OBJECT_ID><CENTER_NAME>EARTH</CENTER_NAME><REF_FRAME>TEME</REF_FRAME><TIME_SYSTEM>UTC</TIME_SYSTEM><MEAN_ELEMENT_THEORY>SGP4</MEAN_ELEMENT_THEORY></metadata><data><meanElements><EPOCH>2025-11-25T12:59:38.395104</EPOCH><MEAN_MOTION>14.37514081</MEAN_MOTION><ECCENTRICITY>.00023074</ECCENTRICITY><INCLINATION>45.0399</INCLINATION><RA_OF_ASC_NODE>52.7790</RA_OF_ASC_NODE><ARG_OF_PERICENTER>95.6210</ARG_OF_PERICENTER><MEAN_ANOMALY>264.4902</MEAN_ANOMALY></meanElements><tleParameters><EPHEMERIS_TYPE>0</EPHEMERIS_TYPE><CLASSIFICATION_TYPE>U</CLASSIFICATION_TYPE><NORAD_CAT_ID>25986</NORAD_CAT_ID><ELEMENT_SET_NO>999</ELEMENT_SET_NO><REV_AT_EPOCH>35811</REV_AT_EPOCH><BSTAR>.47349451E-3</BSTAR><MEAN_MOTION_DOT>.1289E-4</MEAN_MOTION_DOT><MEAN_MOTION_DDOT>0</MEAN_MOTION_DDOT></tleParameters></data></segment></body></omm>
<omm id="CCSDS_OMM_VERS" version="2.0">
<header><CREATION_DATE/><ORIGINATOR/></header><body><segment><metadata><OBJECT_NAME>ORBCOMM FM38</OBJECT_NAME><OBJECT_ID>2008-031A</OBJECT_ID><CENTER_NAME>EARTH</CENTER_NAME><REF_FRAME>TEME</REF_FRAME><TIME_SYSTEM>UTC</TIME_SYSTEM><MEAN_ELEMENT_THEORY>SGP4</MEAN_ELEMENT_THEORY></metadata><data><meanElements><EPOCH>2025-11-26T04:43:18.878592</EPOCH><MEAN_MOTION>14.82158206</MEAN_MOTION><ECCENTRICITY>.0004782</ECCENTRICITY><INCLINATION>48.4393</INCLINATION><RA_OF_ASC_NODE>262.7545</RA_OF_ASC_NODE><ARG_OF_PERICENTER>16.1624</ARG_OF_PERICENTER><MEAN_ANOMALY>343.9444</MEAN_ANOMALY></meanElements><tleParameters><EPHEMERIS_TYPE>0</EPHEMERIS_TYPE><CLASSIFICATION_TYPE>U</CLASSIFICATION_TYPE><NORAD_CAT_ID>33060</NORAD_CAT_ID><ELEMENT_SET_NO>999</ELEMENT_SET_NO><REV_AT_EPOCH>93877</REV_AT_EPOCH><BSTAR>.36299E-3</BSTAR><MEAN_MOTION_DOT>.2707E-4</MEAN_MOTION_DOT><MEAN_MOTION_DDOT>0</MEAN_MOTION_DDOT></tleParameters></data></segment></body></omm>
<omm id="CCSDS_OMM_VERS" version="2.0">
<header><CREATION_DATE/><ORIGINATOR/></header><body><segment><metadata><OBJECT_NAME>ORBCOMM FM41</OBJECT_NAME><OBJECT_ID>2008-031B</OBJECT_ID><CENTER_NAME>EARTH</CENTER_NAME><REF_FRAME>TEME</REF_FRAME><TIME_SYSTEM>UTC</TIME_SYSTEM><MEAN_ELEMENT_THEORY>SGP4</MEAN_ELEMENT_THEORY></metadata><data><meanElements><EPOCH>2025-11-26T02:44:37.185792</EPOCH><MEAN_MOTION>14.81713866</MEAN_MOTION><ECCENTRICITY>.0004122</ECCENTRICITY><INCLINATION>48.4432</INCLINATION><RA_OF_ASC_NODE>271.4987</RA_OF_ASC_NODE><ARG_OF_PERICENTER>358.6344</ARG_OF_PERICENTER><MEAN_ANOMALY>14.6550</MEAN_ANOMALY></meanElements><tleParameters><EPHEMERIS_TYPE>0</EPHEMERIS_TYPE><CLASSIFICATION_TYPE>U</CLASSIFICATION_TYPE><NORAD_CAT_ID>33061</NORAD_CAT_ID><ELEMENT_SET_NO>999</ELEMENT_SET_NO><REV_AT_EPOCH>93824</REV_AT_EPOCH><BSTAR>.35039E-3</BSTAR><MEAN_MOTION_DOT>.2576E-4</MEAN_MOTION_DOT><MEAN_MOTION_DDOT>0</MEAN_MOTION_DDOT></tleParameters></data></segment></body></omm>
<omm id="CCSDS_OMM_VERS" version="2.0">
<header><CREATION_DATE/><ORIGINATOR/></header><body><segment><metadata><OBJECT_NAME>ORBCOMM FM29</OBJECT_NAME><OBJECT_ID>2008-031C</OBJECT_ID><CENTER_NAME>EARTH</CENTER_NAME><REF_FRAME>TEME</REF_FRAME><TIME_SYSTEM>UTC</TIME_SYSTEM><MEAN_ELEMENT_THEORY>SGP4</MEAN_ELEMENT_THEORY></metadata><data><meanElements><EPOCH>2025-11-26T03:40:44.986080</EPOCH><MEAN_MOTION>14.81854276</MEAN_MOTION><ECCENTRICITY>.0005833</ECCENTRICITY><INCLINATION>48.4386</INCLINATION><RA_OF_ASC_NODE>278.9078</RA_OF_ASC_NODE><ARG_OF_PERICENTER>359.3635</ARG_OF_PERICENTER><MEAN_ANOMALY>14.0101</MEAN_ANOMALY></meanElements><tleParameters><EPHEMERIS_TYPE>0</EPHEMERIS_TYPE><CLASSIFICATION_TYPE>U</CLASSIFICATION_TYPE><NORAD_CAT_ID>33062</NORAD_CAT_ID><ELEMENT_SET_NO>999</ELEMENT_SET_NO><REV_AT_EPOCH>93816</REV_AT_EPOCH><BSTAR>.36207E-3</BSTAR><MEAN_MOTION_DOT>.2679E-4</MEAN_MOTION_DOT><MEAN_MOTION_DDOT>0</MEAN_MOTION_DDOT></tleParameters></data></segment></body></omm>
<omm id="CCSDS_OMM_VERS" version="2.0">
<header><CREATION_DATE/><ORIGINATOR/></header><body><segment><metadata><OBJECT_NAME>ORBCOMM FM39</OBJECT_NAME><OBJECT_ID>2008-031D</OBJECT_ID><CENTER_NAME>EARTH</CENTER_NAME><REF_FRAME>TEME</REF_FRAME><TIME_SYSTEM>UTC</TIME_SYSTEM><MEAN_ELEMENT_THEORY>SGP4</MEAN_ELEMENT_THEORY></metadata><data><meanElements><EPOCH>2025-11-26T05:01:40.418112</EPOCH><MEAN_MOTION>14.80304767</MEAN_MOTION><ECCENTRICITY>.0007004</ECCENTRICITY><INCLINATION>48.4405</INCLINATION><RA_OF_ASC_NODE>304.7386</RA_OF_ASC_NODE><ARG_OF_PERICENTER>330.2563</ARG_OF_PERICENTER><MEAN_ANOMALY>29.7953</MEAN_ANOMALY></meanElements><tleParameters><EPHEMERIS_TYPE>0</EPHEMERIS_TYPE><CLASSIFICATION_TYPE>U</CLASSIFICATION_TYPE><NORAD_CAT_ID>33063</NORAD_CAT_ID><ELEMENT_SET_NO>999</ELEMENT_SET_NO><REV_AT_EPOCH>93779</REV_AT_EPOCH><BSTAR>.33728E-3</BSTAR><MEAN_MOTION_DOT>.2385E-4</MEAN_MOTION_DOT><MEAN_MOTION_DDOT>0</MEAN_MOTION_DDOT></tleParameters></data></segment></body></omm>

</ndm>
